{"type": "FeatureCollection", "features": [{"type": "Feature", "geometry": {"type": "LineString", "coordinates": [[-76.46855000000001, -11.45865], [-77.05727333333333, -12.047878333333331]]}, "properties": {"id": "live_spoof_248389000.0", "kind": "ais_spoofing"}}, {"type": "Feature", "geometry": {"type": "LineString", "coordinates": [[-77.04267166666666, -12.045401666666669], [-76.55616333333334, -10.841056666666669]]}, "properties": {"id": "live_spoof_538003048.0", "kind": "ais_spoofing"}}, {"type": "Feature", "geometry": {"type": "LineString", "coordinates": [[-76.75016833333333, -11.936318333333332], [-77.05849166666667, -12.036363333333332]]}, "properties": {"id": "live_spoof_636012379.0", "kind": "ais_spoofing"}}, {"type": "Feature", "geometry": {"type": "LineString", "coordinates": [[-77.08011166666667, -12.075078333333332], [-79.27031333333333, -13.781933333333336]]}, "properties": {"id": "live_spoof_667002373.0", "kind": "ais_spoofing"}}]}