{"type": "FeatureCollection", "features": [{"type": "Feature", "geometry": {"type": "Point", "coordinates": [123.8275, 29.1901]}, "properties": {"id": "live_enco_093323cc0ecee4", "kind": "encounter", "mpa": "At-sea encounter (transshipment)", "severity": "high", "severity_reason": "foreign vessel, no authorization on record", "when": "2026-10-04T00:30:00.000Z", "score": null, "vessel": "512369088", "ship_name": "13109", "ship_type": "Fishing", "destination": "", "gear": "Encounter", "flag": "NZ", "flag_emoji": "\ud83c\uddf3\ud83c\uddff", "eez": "Chinese Exclusive Economic Zone", "eez_sovereign": "China", "eez_foreign": true, "authorization": "no_record", "authorities": "", "iuu_listed": false, "iuu_label": "", "imo": "", "next_port": null, "evidence_hash": "31c766ed34b97a05806a860c738d34729a88cfd816a0a7b8b06491a6411e65b0", "evidence_schema": "seavigil-evidence-1.0", "why": "two vessels within range for 47 h \u00b7 counterpart: 13109 \u00b7 two-vessel at-sea encounter (GFW Events)", "why_full": "two vessels within range for 47 h \u00b7 counterpart: 13109 \u00b7 two-vessel at-sea encounter (GFW Events)", "baseline": "", "caveats": "Co-location can be legitimate (joint operations, safety, shelter). | Apparent transshipment is inferred from proximity and low speed, not observed. | An inspection lead from GFW Events, not proof of illegal activity.", "caveat": "Co-location can be legitimate (joint operations, safety, shelter).", "innocent": "Two vessels meeting at sea can be a legitimate transfer, bunkering, or a safety stop; transshipment is a possibility to verify, not a certainty."}}, {"type": "Feature", "geometry": {"type": "Point", "coordinates": [-51.9043, 48.7561]}, "properties": {"id": "live_enco_e80f333ada7187", "kind": "encounter", "mpa": "At-sea encounter (transshipment)", "severity": "high", "severity_reason": "foreign vessel, no authorization on record", "when": "2026-10-05T16:50:00.000Z", "score": null, "vessel": "220500299", "ship_name": "EASTERN RAEYA  [86%]", "ship_type": "Fishing", "destination": "", "gear": "Encounter", "flag": "DK", "flag_emoji": "\ud83c\udde9\ud83c\uddf0", "eez": "Canadian Exclusive Economic Zone", "eez_sovereign": "Canada", "eez_foreign": true, "authorization": "no_record", "authorities": "", "iuu_listed": false, "iuu_label": "", "imo": "", "next_port": null, "evidence_hash": "967517c0286f490f028f49f0e1e71c64e9d4a8b2b03aefbd453724873a9c6093", "evidence_schema": "seavigil-evidence-1.0", "why": "two vessels within range for 7 h \u00b7 counterpart: EASTERN RAEYA  [95%] \u00b7 two-vessel at-sea encounter (GFW Events)", "why_full": "two vessels within range for 7 h \u00b7 counterpart: EASTERN RAEYA  [95%] \u00b7 two-vessel at-sea encounter (GFW Events)", "baseline": "", "caveats": "Co-location can be legitimate (joint operations, safety, shelter). | Apparent transshipment is inferred from proximity and low speed, not observed. | An inspection lead from GFW Events, not proof of illegal activity.", "caveat": "Co-location can be legitimate (joint operations, safety, shelter).", "innocent": "Two vessels meeting at sea can be a legitimate transfer, bunkering, or a safety stop; transshipment is a possibility to verify, not a certainty."}}, {"type": "Feature", "geometry": {"type": "Point", "coordinates": [121.6248, 40.0868]}, "properties": {"id": "live_enco_dc4e845c84d25d", "kind": "encounter", "mpa": "At-sea encounter (transshipment)", "severity": "high", "severity_reason": "foreign vessel, no authorization on record", "when": "2026-10-05T00:30:00.000Z", "score": null, "vessel": "213582225", "ship_name": "412200708", "ship_type": "Fishing", "destination": "", "gear": "Encounter", "flag": "GE", "flag_emoji": "\ud83c\uddec\ud83c\uddea", "eez": "Chinese Exclusive Economic Zone", "eez_sovereign": "China", "eez_foreign": true, "authorization": "no_record", "authorities": "", "iuu_listed": false, "iuu_label": "", "imo": "", "next_port": null, "evidence_hash": "e1d9b9ab59d536b98be2f3425b4cbede3bd04ff43740e032c980400e49b22d5d", "evidence_schema": "seavigil-evidence-1.0", "why": "two vessels within range for 23 h \u00b7 counterpart: LIAOWAYU71799 \u00b7 two-vessel at-sea encounter (GFW Events)", "why_full": "two vessels within range for 23 h \u00b7 counterpart: LIAOWAYU71799 \u00b7 two-vessel at-sea encounter (GFW Events)", "baseline": "", "caveats": "Co-location can be legitimate (joint operations, safety, shelter). | Apparent transshipment is inferred from proximity and low speed, not observed. | An inspection lead from GFW Events, not proof of illegal activity.", "caveat": "Co-location can be legitimate (joint operations, safety, shelter).", "innocent": "Two vessels meeting at sea can be a legitimate transfer, bunkering, or a safety stop; transshipment is a possibility to verify, not a certainty."}}, {"type": "Feature", "geometry": {"type": "Point", "coordinates": [107.7255, 20.1245]}, "properties": {"id": "live_enco_1700de3a1cb3c1", "kind": "encounter", "mpa": "At-sea encounter (transshipment)", "severity": "high", "severity_reason": "foreign vessel, no authorization on record", "when": "2026-10-05T01:00:00.000Z", "score": null, "vessel": "450308100", "ship_name": "HUNG VAN   01    C12", "ship_type": "Fishing", "destination": "", "gear": "Encounter", "flag": "LB", "flag_emoji": "\ud83c\uddf1\ud83c\udde7", "eez": "Vietnamese Exclusive Economic Zone", "eez_sovereign": "Vietnam", "eez_foreign": true, "authorization": "no_record", "authorities": "", "iuu_listed": false, "iuu_label": "", "imo": "", "next_port": null, "evidence_hash": "bc1168519fb5fb174513f737c98a18d165187c5c9774adf59731f4f5f6ffd74e", "evidence_schema": "seavigil-evidence-1.0", "why": "two vessels within range for 23 h \u00b7 counterpart: TAU78 F34 \u00b7 two-vessel at-sea encounter (GFW Events)", "why_full": "two vessels within range for 23 h \u00b7 counterpart: TAU78 F34 \u00b7 two-vessel at-sea encounter (GFW Events)", "baseline": "", "caveats": "Co-location can be legitimate (joint operations, safety, shelter). | Apparent transshipment is inferred from proximity and low speed, not observed. | An inspection lead from GFW Events, not proof of illegal activity.", "caveat": "Co-location can be legitimate (joint operations, safety, shelter).", "innocent": "Two vessels meeting at sea can be a legitimate transfer, bunkering, or a safety stop; transshipment is a possibility to verify, not a certainty."}}, {"type": "Feature", "geometry": {"type": "Point", "coordinates": [109.8164, 10.2001]}, "properties": {"id": "live_enco_9b82a10afa3169", "kind": "encounter", "mpa": "At-sea encounter (transshipment)", "severity": "high", "severity_reason": "foreign vessel, no authorization on record", "when": "2026-10-05T18:10:00.000Z", "score": null, "vessel": "251100998", "ship_name": "TI_99144_LXN-99%", "ship_type": "Fishing", "destination": "", "gear": "Encounter", "flag": "IS", "flag_emoji": "\ud83c\uddee\ud83c\uddf8", "eez": "Vietnamese Exclusive Economic Zone", "eez_sovereign": "Vietnam", "eez_foreign": true, "authorization": "no_record", "authorities": "", "iuu_listed": false, "iuu_label": "", "imo": "", "next_port": null, "evidence_hash": "03ba0b4d0e38b5ebe9fb7e887b641ea0c82cb79f6d00b274dfbb7e3dfe0730d7", "evidence_schema": "seavigil-evidence-1.0", "why": "two vessels within range for 6 h \u00b7 counterpart: TI44L X NOI A38 \u00b7 two-vessel at-sea encounter (GFW Events)", "why_full": "two vessels within range for 6 h \u00b7 counterpart: TI44L X NOI A38 \u00b7 two-vessel at-sea encounter (GFW Events)", "baseline": "", "caveats": "Co-location can be legitimate (joint operations, safety, shelter). | Apparent transshipment is inferred from proximity and low speed, not observed. | An inspection lead from GFW Events, not proof of illegal activity.", "caveat": "Co-location can be legitimate (joint operations, safety, shelter).", "innocent": "Two vessels meeting at sea can be a legitimate transfer, bunkering, or a safety stop; transshipment is a possibility to verify, not a certainty."}}, {"type": "Feature", "geometry": {"type": "Point", "coordinates": [107.7256, 20.1244]}, "properties": {"id": "live_enco_13a9b201d3bb1d", "kind": "encounter", "mpa": "At-sea encounter (transshipment)", "severity": "high", "severity_reason": "foreign vessel, no authorization on record", "when": "2026-10-05T00:00:00.000Z", "score": null, "vessel": "450308100", "ship_name": "HUNG VAN   01    C12", "ship_type": "Fishing", "destination": "", "gear": "Encounter", "flag": "LB", "flag_emoji": "\ud83c\uddf1\ud83c\udde7", "eez": "Vietnamese Exclusive Economic Zone", "eez_sovereign": "Vietnam", "eez_foreign": true, "authorization": "no_record", "authorities": "", "iuu_listed": false, "iuu_label": "", "imo": "", "next_port": null, "evidence_hash": "128b50b6e825d1d31c18a1f45c2ed06ea5ace4509759163790e9b0823aa994d0", "evidence_schema": "seavigil-evidence-1.0", "why": "two vessels within range for 24 h \u00b7 counterpart: TAY MON KHANH C12 \u00b7 two-vessel at-sea encounter (GFW Events)", "why_full": "two vessels within range for 24 h \u00b7 counterpart: TAY MON KHANH C12 \u00b7 two-vessel at-sea encounter (GFW Events)", "baseline": "", "caveats": "Co-location can be legitimate (joint operations, safety, shelter). | Apparent transshipment is inferred from proximity and low speed, not observed. | An inspection lead from GFW Events, not proof of illegal activity.", "caveat": "Co-location can be legitimate (joint operations, safety, shelter).", "innocent": "Two vessels meeting at sea can be a legitimate transfer, bunkering, or a safety stop; transshipment is a possibility to verify, not a certainty."}}, {"type": "Feature", "geometry": {"type": "Point", "coordinates": [57.7289, 19.4802]}, "properties": {"id": "live_enco_de3b955de62269", "kind": "encounter", "mpa": "At-sea encounter (transshipment)", "severity": "high", "severity_reason": "foreign vessel, no authorization on record", "when": "2026-10-05T17:20:00.000Z", "score": null, "vessel": "271073423", "ship_name": "CAN KUL 1", "ship_type": "Fishing", "destination": "", "gear": "Encounter", "flag": "TR", "flag_emoji": "\ud83c\uddf9\ud83c\uddf7", "eez": "Omani Exclusive Economic Zone", "eez_sovereign": "Oman", "eez_foreign": true, "authorization": "no_record", "authorities": "", "iuu_listed": false, "iuu_label": "", "imo": "", "next_port": null, "evidence_hash": "fe2eabab04faf71dee2a7290777e0084a4234d1fa1bccaa6b5e4cc7717daa8b5", "evidence_schema": "seavigil-evidence-1.0", "why": "two vessels within range for 6 h \u00b7 counterpart: AKGUN VEDAT \u00b7 two-vessel at-sea encounter (GFW Events)", "why_full": "two vessels within range for 6 h \u00b7 counterpart: AKGUN VEDAT \u00b7 two-vessel at-sea encounter (GFW Events)", "baseline": "", "caveats": "Co-location can be legitimate (joint operations, safety, shelter). | Apparent transshipment is inferred from proximity and low speed, not observed. | An inspection lead from GFW Events, not proof of illegal activity.", "caveat": "Co-location can be legitimate (joint operations, safety, shelter).", "innocent": "Two vessels meeting at sea can be a legitimate transfer, bunkering, or a safety stop; transshipment is a possibility to verify, not a certainty."}}, {"type": "Feature", "geometry": {"type": "Point", "coordinates": [107.7256, 20.1244]}, "properties": {"id": "live_enco_983f9d0e837f06", "kind": "encounter", "mpa": "At-sea encounter (transshipment)", "severity": "high", "severity_reason": "foreign vessel, no authorization on record", "when": "2026-10-05T08:10:00.000Z", "score": null, "vessel": "450308100", "ship_name": "HUNG VAN   01    C12", "ship_type": "Fishing", "destination": "", "gear": "Encounter", "flag": "LB", "flag_emoji": "\ud83c\uddf1\ud83c\udde7", "eez": "Vietnamese Exclusive Economic Zone", "eez_sovereign": "Vietnam", "eez_foreign": true, "authorization": "no_record", "authorities": "", "iuu_listed": false, "iuu_label": "", "imo": "", "next_port": null, "evidence_hash": "4b09582a5bd3c7eca0376cc460817cfaec256a42df0126f384e9cc4a93ffe31e", "evidence_schema": "seavigil-evidence-1.0", "why": "two vessels within range for 16 h \u00b7 counterpart: C39C35G0I 24 \u00b7 two-vessel at-sea encounter (GFW Events)", "why_full": "two vessels within range for 16 h \u00b7 counterpart: C39C35G0I 24 \u00b7 two-vessel at-sea encounter (GFW Events)", "baseline": "", "caveats": "Co-location can be legitimate (joint operations, safety, shelter). | Apparent transshipment is inferred from proximity and low speed, not observed. | An inspection lead from GFW Events, not proof of illegal activity.", "caveat": "Co-location can be legitimate (joint operations, safety, shelter).", "innocent": "Two vessels meeting at sea can be a legitimate transfer, bunkering, or a safety stop; transshipment is a possibility to verify, not a certainty."}}, {"type": "Feature", "geometry": {"type": "Point", "coordinates": [-155.3712, -5.2196]}, "properties": {"id": "live_enco_ca33446dabc3c8", "kind": "encounter", "mpa": "At-sea encounter (transshipment)", "severity": "high", "severity_reason": "foreign vessel, authorization lapsed", "when": "2026-10-05T13:00:00.000Z", "score": null, "vessel": "412549562", "ship_name": "GUANGYUANYU333", "ship_type": "Fishing", "destination": "", "gear": "Encounter", "flag": "CN", "flag_emoji": "\ud83c\udde8\ud83c\uddf3", "eez": "Kiribati Exclusive Economic Zone (Line Group)", "eez_sovereign": "Kiribati", "eez_foreign": true, "authorization": "authorization_lapsed", "authorities": "FFA, IATTC, WCPFC", "iuu_listed": false, "iuu_label": "", "imo": "1016642", "next_port": null, "evidence_hash": "d148f708ad71b727f331de8f3ed2486bef87ba3f1873c343526f892594c56a75", "evidence_schema": "seavigil-evidence-1.0", "why": "two vessels within range for 11 h \u00b7 counterpart: 107000230 \u00b7 two-vessel at-sea encounter (GFW Events)", "why_full": "two vessels within range for 11 h \u00b7 counterpart: 107000230 \u00b7 two-vessel at-sea encounter (GFW Events)", "baseline": "", "caveats": "Co-location can be legitimate (joint operations, safety, shelter). | Apparent transshipment is inferred from proximity and low speed, not observed. | An inspection lead from GFW Events, not proof of illegal activity.", "caveat": "Co-location can be legitimate (joint operations, safety, shelter).", "innocent": "Two vessels meeting at sea can be a legitimate transfer, bunkering, or a safety stop; transshipment is a possibility to verify, not a certainty."}}, {"type": "Feature", "geometry": {"type": "Point", "coordinates": [122.9192, 26.6483]}, "properties": {"id": "live_enco_b68b131116f94b", "kind": "encounter", "mpa": "At-sea encounter (transshipment)", "severity": "high", "severity_reason": "foreign vessel, no authorization on record", "when": "2026-10-05T01:50:00.000Z", "score": null, "vessel": "412812312", "ship_name": "", "ship_type": "Fishing", "destination": "", "gear": "Encounter", "flag": "CN", "flag_emoji": "\ud83c\udde8\ud83c\uddf3", "eez": "Overlapping claim Senkaku Islands: Taiwan / Japan / China", "eez_sovereign": "Taiwan", "eez_foreign": true, "authorization": "no_record", "authorities": "", "iuu_listed": false, "iuu_label": "", "imo": "", "next_port": null, "evidence_hash": "e56d3481b62bfe7587c999271dccc67e82eb810fbdc96040b8f2a4c0f4d1caf5", "evidence_schema": "seavigil-evidence-1.0", "why": "two vessels within range for 22 h \u00b7 counterpart: MIN SHI YU 07279 \u00b7 two-vessel at-sea encounter (GFW Events)", "why_full": "two vessels within range for 22 h \u00b7 counterpart: MIN SHI YU 07279 \u00b7 two-vessel at-sea encounter (GFW Events)", "baseline": "", "caveats": "Co-location can be legitimate (joint operations, safety, shelter). | Apparent transshipment is inferred from proximity and low speed, not observed. | An inspection lead from GFW Events, not proof of illegal activity.", "caveat": "Co-location can be legitimate (joint operations, safety, shelter).", "innocent": "Two vessels meeting at sea can be a legitimate transfer, bunkering, or a safety stop; transshipment is a possibility to verify, not a certainty."}}, {"type": "Feature", "geometry": {"type": "Point", "coordinates": [123.4983, 27.2761]}, "properties": {"id": "live_enco_e55a0a57264287", "kind": "encounter", "mpa": "At-sea encounter (transshipment)", "severity": "high", "severity_reason": "foreign vessel, no authorization on record", "when": "2026-10-04T21:50:00.000Z", "score": null, "vessel": "608083760", "ship_name": "MIN.SHI.YU.5319", "ship_type": "Fishing", "destination": "", "gear": "Encounter", "flag": "SH", "flag_emoji": "\ud83c\uddf8\ud83c\udded", "eez": "Overlapping claim Senkaku Islands: Taiwan / Japan / China", "eez_sovereign": "Taiwan", "eez_foreign": true, "authorization": "no_record", "authorities": "", "iuu_listed": false, "iuu_label": "", "imo": "", "next_port": null, "evidence_hash": "900003a63242667cdd5af562aa7b3bb388cebdedd2d71d8884bd58fe5e2bfb2c", "evidence_schema": "seavigil-evidence-1.0", "why": "two vessels within range for 26 h \u00b7 counterpart: MINSHIYU05319 \u00b7 two-vessel at-sea encounter (GFW Events)", "why_full": "two vessels within range for 26 h \u00b7 counterpart: MINSHIYU05319 \u00b7 two-vessel at-sea encounter (GFW Events)", "baseline": "", "caveats": "Co-location can be legitimate (joint operations, safety, shelter). | Apparent transshipment is inferred from proximity and low speed, not observed. | An inspection lead from GFW Events, not proof of illegal activity.", "caveat": "Co-location can be legitimate (joint operations, safety, shelter).", "innocent": "Two vessels meeting at sea can be a legitimate transfer, bunkering, or a safety stop; transshipment is a possibility to verify, not a certainty."}}, {"type": "Feature", "geometry": {"type": "Point", "coordinates": [121.8787, 26.3628]}, "properties": {"id": "live_enco_886343bbfe9154", "kind": "encounter", "mpa": "At-sea encounter (transshipment)", "severity": "high", "severity_reason": "foreign vessel, no authorization on record", "when": "2026-10-05T16:10:00.000Z", "score": null, "vessel": "412442576", "ship_name": "MINFUDINGYU06526", "ship_type": "Fishing", "destination": "", "gear": "Encounter", "flag": "CN", "flag_emoji": "\ud83c\udde8\ud83c\uddf3", "eez": "Overlapping claim Taiwan: Taiwan / China", "eez_sovereign": "Taiwan", "eez_foreign": true, "authorization": "no_record", "authorities": "", "iuu_listed": false, "iuu_label": "", "imo": "", "next_port": null, "evidence_hash": "a0c9170b26b35bf04e03e454371fffc6d56cc5eac9b95dee935c163bcd27654c", "evidence_schema": "seavigil-evidence-1.0", "why": "two vessels within range for 7 h \u00b7 counterpart: MINFUDINGYU06526 \u00b7 two-vessel at-sea encounter (GFW Events)", "why_full": "two vessels within range for 7 h \u00b7 counterpart: MINFUDINGYU06526 \u00b7 two-vessel at-sea encounter (GFW Events)", "baseline": "", "caveats": "Co-location can be legitimate (joint operations, safety, shelter). | Apparent transshipment is inferred from proximity and low speed, not observed. | An inspection lead from GFW Events, not proof of illegal activity.", "caveat": "Co-location can be legitimate (joint operations, safety, shelter).", "innocent": "Two vessels meeting at sea can be a legitimate transfer, bunkering, or a safety stop; transshipment is a possibility to verify, not a certainty."}}, {"type": "Feature", "geometry": {"type": "Point", "coordinates": [174.7296, -21.0122]}, "properties": {"id": "live_ais__0828d99a6f5f4c", "kind": "ais_disabling", "mpa": "AIS disabling (going dark)", "severity": "high", "severity_reason": "foreign vessel, no authorization on record", "when": "2026-09-26T06:58:22.000Z", "score": null, "vessel": "412338002", "ship_name": "GYY338-02", "ship_type": "Gear", "destination": "", "gear": "AIS gap", "flag": "CN", "flag_emoji": "\ud83c\udde8\ud83c\uddf3", "eez": "Fijian Exclusive Economic Zone", "eez_sovereign": "Fiji", "eez_foreign": true, "authorization": "no_record", "authorities": "", "iuu_listed": false, "iuu_label": "", "imo": "", "next_port": null, "evidence_hash": "e627ab7a578e27f632f7065310d28d079b79cc85216d88b6a7e3437abb6a3037", "evidence_schema": "seavigil-evidence-1.0", "why": "went dark 220 nm offshore for 231 h \u00b7 satellite-confirmed AIS gap (GFW Events)", "why_full": "went dark 220 nm offshore for 231 h \u00b7 satellite-confirmed AIS gap (GFW Events)", "baseline": "", "caveats": "AIS gaps can be reception loss, not always intentional disabling. | The position is where AIS dropped; the path while dark is unknown. | An inspection lead from GFW Events, not proof of illegal activity.", "caveat": "AIS gaps can be reception loss, not always intentional disabling.", "innocent": "Going dark is frequently benign: in open water, where gaps are commonly protecting a fishing ground or waiting out weather. It is most actionable inside or beside a closed zone."}}, {"type": "Feature", "geometry": {"type": "Point", "coordinates": [119.0693, 38.7987]}, "properties": {"id": "live_enco_14899cc64fd5d0", "kind": "encounter", "mpa": "At-sea encounter (transshipment)", "severity": "high", "severity_reason": "foreign vessel, no authorization on record", "when": "2026-10-05T06:10:00.000Z", "score": null, "vessel": "608681940", "ship_name": "1", "ship_type": "Fishing", "destination": "", "gear": "Encounter", "flag": "SH", "flag_emoji": "\ud83c\uddf8\ud83c\udded", "eez": "Chinese Exclusive Economic Zone", "eez_sovereign": "China", "eez_foreign": true, "authorization": "no_record", "authorities": "", "iuu_listed": false, "iuu_label": "", "imo": "", "next_port": null, "evidence_hash": "d1e3e624ce9f6cd0464e438d8f9949211ad0853b503f9ccb704fab5a783637ec", "evidence_schema": "seavigil-evidence-1.0", "why": "two vessels within range for 16 h \u00b7 counterpart: JILEYU04222 \u00b7 two-vessel at-sea encounter (GFW Events)", "why_full": "two vessels within range for 16 h \u00b7 counterpart: JILEYU04222 \u00b7 two-vessel at-sea encounter (GFW Events)", "baseline": "", "caveats": "Co-location can be legitimate (joint operations, safety, shelter). | Apparent transshipment is inferred from proximity and low speed, not observed. | An inspection lead from GFW Events, not proof of illegal activity.", "caveat": "Co-location can be legitimate (joint operations, safety, shelter).", "innocent": "Two vessels meeting at sea can be a legitimate transfer, bunkering, or a safety stop; transshipment is a possibility to verify, not a certainty."}}, {"type": "Feature", "geometry": {"type": "Point", "coordinates": [-171.4243, -14.026]}, "properties": {"id": "live_enco_265ae02d21152b", "kind": "encounter", "mpa": "At-sea encounter (transshipment)", "severity": "high", "severity_reason": "foreign vessel, authorization lapsed", "when": "2026-10-05T00:40:00.000Z", "score": null, "vessel": "416008422", "ship_name": "CHUAN FA SHIAN 288", "ship_type": "Fishing", "destination": "", "gear": "Encounter", "flag": "TW", "flag_emoji": "\ud83c\uddf9\ud83c\uddfc", "eez": "Samoan Exclusive Economic Zone", "eez_sovereign": "Samoa", "eez_foreign": true, "authorization": "authorization_lapsed", "authorities": "FFA, IATTC, WCPFC", "iuu_listed": false, "iuu_label": "", "imo": "9961257", "next_port": null, "evidence_hash": "e737ac574944958073b1eb21b90b647ae5f957f0f2e170bf029e78f27dbedc50", "evidence_schema": "seavigil-evidence-1.0", "why": "two vessels within range for 21 h \u00b7 counterpart: SHIN JAAN SHIN NO.7 \u00b7 two-vessel at-sea encounter (GFW Events)", "why_full": "two vessels within range for 21 h \u00b7 counterpart: SHIN JAAN SHIN NO.7 \u00b7 two-vessel at-sea encounter (GFW Events)", "baseline": "", "caveats": "Co-location can be legitimate (joint operations, safety, shelter). | Apparent transshipment is inferred from proximity and low speed, not observed. | An inspection lead from GFW Events, not proof of illegal activity.", "caveat": "Co-location can be legitimate (joint operations, safety, shelter).", "innocent": "Two vessels meeting at sea can be a legitimate transfer, bunkering, or a safety stop; transshipment is a possibility to verify, not a certainty."}}, {"type": "Feature", "geometry": {"type": "Point", "coordinates": [-42.2983, -24.6914]}, "properties": {"id": "live_ais__f80aa4ee2e48b2", "kind": "ais_disabling", "mpa": "AIS disabling (going dark)", "severity": "high", "severity_reason": "foreign vessel, no authorization on record", "when": "2026-10-05T09:16:00.000Z", "score": null, "vessel": "636017969", "ship_name": "ALMI ATLAS", "ship_type": "Other", "destination": "", "gear": "AIS gap", "flag": "LR", "flag_emoji": "\ud83c\uddf1\ud83c\uddf7", "eez": "Brazilian Exclusive Economic Zone", "eez_sovereign": "Brazil", "eez_foreign": true, "authorization": "no_record", "authorities": "", "iuu_listed": false, "iuu_label": "", "imo": "9816323", "next_port": null, "evidence_hash": "b641b60e661c9278bc10e901bd312f117915c132615b0b0cf05180c20977b576", "evidence_schema": "seavigil-evidence-1.0", "why": "went dark 102 nm offshore for 12 h \u00b7 satellite-confirmed AIS gap (GFW Events)", "why_full": "went dark 102 nm offshore for 12 h \u00b7 satellite-confirmed AIS gap (GFW Events)", "baseline": "", "caveats": "AIS gaps can be reception loss, not always intentional disabling. | The position is where AIS dropped; the path while dark is unknown. | An inspection lead from GFW Events, not proof of illegal activity.", "caveat": "AIS gaps can be reception loss, not always intentional disabling.", "innocent": "Going dark is frequently benign: in open water, where gaps are commonly protecting a fishing ground or waiting out weather. It is most actionable inside or beside a closed zone."}}, {"type": "Feature", "geometry": {"type": "Point", "coordinates": [-70.7757, 38.1361]}, "properties": {"id": "live_ais__263684ac87d8d9", "kind": "ais_disabling", "mpa": "AIS disabling (going dark)", "severity": "high", "severity_reason": "foreign vessel, no authorization on record", "when": "2026-10-04T08:58:37.000Z", "score": null, "vessel": "636019142", "ship_name": "SOHO SQUARE", "ship_type": "Other", "destination": "", "gear": "AIS gap", "flag": "LR", "flag_emoji": "\ud83c\uddf1\ud83c\uddf7", "eez": "United States Exclusive Economic Zone", "eez_sovereign": "United States", "eez_foreign": true, "authorization": "no_record", "authorities": "", "iuu_listed": false, "iuu_label": "", "imo": "", "next_port": null, "evidence_hash": "9eed68c50f80a92721beaa2ae8cf42a9c4bc7a35941906995d5602eaeb7078f2", "evidence_schema": "seavigil-evidence-1.0", "why": "went dark 274 nm offshore for 36 h \u00b7 satellite-confirmed AIS gap (GFW Events)", "why_full": "went dark 274 nm offshore for 36 h \u00b7 satellite-confirmed AIS gap (GFW Events)", "baseline": "", "caveats": "AIS gaps can be reception loss, not always intentional disabling. | The position is where AIS dropped; the path while dark is unknown. | An inspection lead from GFW Events, not proof of illegal activity.", "caveat": "AIS gaps can be reception loss, not always intentional disabling.", "innocent": "Going dark is frequently benign: in open water, where gaps are commonly protecting a fishing ground or waiting out weather. It is most actionable inside or beside a closed zone."}}, {"type": "Feature", "geometry": {"type": "Point", "coordinates": [113.6857, 21.2346]}, "properties": {"id": "live_enco_0b2b86b5174ad7", "kind": "encounter", "mpa": "At-sea encounter (transshipment)", "severity": "high", "severity_reason": "foreign vessel, no authorization on record", "when": "2026-10-05T16:20:00.000Z", "score": null, "vessel": "241114964", "ship_name": "A", "ship_type": "Fishing", "destination": "", "gear": "Encounter", "flag": "GR", "flag_emoji": "\ud83c\uddec\ud83c\uddf7", "eez": "Chinese Exclusive Economic Zone", "eez_sovereign": "China", "eez_foreign": true, "authorization": "no_record", "authorities": "", "iuu_listed": false, "iuu_label": "", "imo": "", "next_port": null, "evidence_hash": "78ab8189d3f2352cebf57bf7c75454e648908c990b08c6e7a4618e80e5b3fc3c", "evidence_schema": "seavigil-evidence-1.0", "why": "two vessels within range for 5 h \u00b7 counterpart: YUEYANGJIANGYU67069 \u00b7 two-vessel at-sea encounter (GFW Events)", "why_full": "two vessels within range for 5 h \u00b7 counterpart: YUEYANGJIANGYU67069 \u00b7 two-vessel at-sea encounter (GFW Events)", "baseline": "", "caveats": "Co-location can be legitimate (joint operations, safety, shelter). | Apparent transshipment is inferred from proximity and low speed, not observed. | An inspection lead from GFW Events, not proof of illegal activity.", "caveat": "Co-location can be legitimate (joint operations, safety, shelter).", "innocent": "Two vessels meeting at sea can be a legitimate transfer, bunkering, or a safety stop; transshipment is a possibility to verify, not a certainty."}}, {"type": "Feature", "geometry": {"type": "Point", "coordinates": [123.4145, 27.122]}, "properties": {"id": "live_enco_2194131d213b50", "kind": "encounter", "mpa": "At-sea encounter (transshipment)", "severity": "high", "severity_reason": "foreign vessel, no authorization on record", "when": "2026-10-05T09:50:00.000Z", "score": null, "vessel": "412058784", "ship_name": "MINSHIYU06288", "ship_type": "Fishing", "destination": "", "gear": "Encounter", "flag": "CN", "flag_emoji": "\ud83c\udde8\ud83c\uddf3", "eez": "Overlapping claim Senkaku Islands: Taiwan / Japan / China", "eez_sovereign": "Taiwan", "eez_foreign": true, "authorization": "no_record", "authorities": "", "iuu_listed": false, "iuu_label": "", "imo": "", "next_port": null, "evidence_hash": "2d4ec4fb06819ed13c08291c266144cd34c6f27d7cce55a1489d44ab27481d70", "evidence_schema": "seavigil-evidence-1.0", "why": "two vessels within range for 11 h \u00b7 counterpart: MIN SHI YU 06288 \u00b7 two-vessel at-sea encounter (GFW Events)", "why_full": "two vessels within range for 11 h \u00b7 counterpart: MIN SHI YU 06288 \u00b7 two-vessel at-sea encounter (GFW Events)", "baseline": "", "caveats": "Co-location can be legitimate (joint operations, safety, shelter). | Apparent transshipment is inferred from proximity and low speed, not observed. | An inspection lead from GFW Events, not proof of illegal activity.", "caveat": "Co-location can be legitimate (joint operations, safety, shelter).", "innocent": "Two vessels meeting at sea can be a legitimate transfer, bunkering, or a safety stop; transshipment is a possibility to verify, not a certainty."}}, {"type": "Feature", "geometry": {"type": "Point", "coordinates": [123.4304, 33.563]}, "properties": {"id": "live_enco_de15193771f2f4", "kind": "encounter", "mpa": "At-sea encounter (transshipment)", "severity": "high", "severity_reason": "foreign vessel, no authorization on record", "when": "2026-10-05T13:30:00.000Z", "score": null, "vessel": "412488888", "ship_name": "LUJIAOYUYUN60637", "ship_type": "Fishing", "destination": "", "gear": "Encounter", "flag": "CN", "flag_emoji": "\ud83c\udde8\ud83c\uddf3", "eez": "South Korean Exclusive Economic Zone", "eez_sovereign": "South Korea", "eez_foreign": true, "authorization": "no_record", "authorities": "", "iuu_listed": false, "iuu_label": "", "imo": "", "next_port": null, "evidence_hash": "80480333ca044020e244bb05dfee1fe9ba42a7f7dd0bc433734620a5c08f16da", "evidence_schema": "seavigil-evidence-1.0", "why": "two vessels within range for 7 h \u00b7 counterpart: LUJIAOYUYUN60637 \u00b7 two-vessel at-sea encounter (GFW Events)", "why_full": "two vessels within range for 7 h \u00b7 counterpart: LUJIAOYUYUN60637 \u00b7 two-vessel at-sea encounter (GFW Events)", "baseline": "", "caveats": "Co-location can be legitimate (joint operations, safety, shelter). | Apparent transshipment is inferred from proximity and low speed, not observed. | An inspection lead from GFW Events, not proof of illegal activity.", "caveat": "Co-location can be legitimate (joint operations, safety, shelter).", "innocent": "Two vessels meeting at sea can be a legitimate transfer, bunkering, or a safety stop; transshipment is a possibility to verify, not a certainty."}}, {"type": "Feature", "geometry": {"type": "Point", "coordinates": [-42.7559, -25.4532]}, "properties": {"id": "live_ais__5b62b01a97a337", "kind": "ais_disabling", "mpa": "AIS disabling (going dark)", "severity": "high", "severity_reason": "foreign vessel, no authorization on record", "when": "2026-10-04T22:11:22.000Z", "score": null, "vessel": "248133000", "ship_name": "LISBOA", "ship_type": "Other", "destination": "", "gear": "AIS gap", "flag": "MT", "flag_emoji": "\ud83c\uddf2\ud83c\uddf9", "eez": "Brazilian Exclusive Economic Zone", "eez_sovereign": "Brazil", "eez_foreign": true, "authorization": "no_record", "authorities": "", "iuu_listed": false, "iuu_label": "", "imo": "9765158", "next_port": null, "evidence_hash": "3d701fe13efc5f7c6f4939ce8a4e5e8ebf78a61f7a59a7fce8fd893acc9cd220", "evidence_schema": "seavigil-evidence-1.0", "why": "went dark 144 nm offshore for 22 h \u00b7 satellite-confirmed AIS gap (GFW Events)", "why_full": "went dark 144 nm offshore for 22 h \u00b7 satellite-confirmed AIS gap (GFW Events)", "baseline": "", "caveats": "AIS gaps can be reception loss, not always intentional disabling. | The position is where AIS dropped; the path while dark is unknown. | An inspection lead from GFW Events, not proof of illegal activity.", "caveat": "AIS gaps can be reception loss, not always intentional disabling.", "innocent": "Going dark is frequently benign: in open water, where gaps are commonly protecting a fishing ground or waiting out weather. It is most actionable inside or beside a closed zone."}}, {"type": "Feature", "geometry": {"type": "Point", "coordinates": [123.857, 33.041]}, "properties": {"id": "live_enco_d92df8ec54d44f", "kind": "encounter", "mpa": "At-sea encounter (transshipment)", "severity": "high", "severity_reason": "foreign vessel, no authorization on record", "when": "2026-10-05T16:30:00.000Z", "score": null, "vessel": "412420291", "ship_name": "ZHEDAIYU15367", "ship_type": "Fishing", "destination": "", "gear": "Encounter", "flag": "CN", "flag_emoji": "\ud83c\udde8\ud83c\uddf3", "eez": "South Korean Exclusive Economic Zone", "eez_sovereign": "South Korea", "eez_foreign": true, "authorization": "no_record", "authorities": "", "iuu_listed": false, "iuu_label": "", "imo": "", "next_port": null, "evidence_hash": "4f2451798f9dd7effc2e1f90654e393321cb5c08fea69fec93c3d54fd4677e2f", "evidence_schema": "seavigil-evidence-1.0", "why": "two vessels within range for 4 h \u00b7 counterpart: ZHEDAIYU15367 \u00b7 two-vessel at-sea encounter (GFW Events)", "why_full": "two vessels within range for 4 h \u00b7 counterpart: ZHEDAIYU15367 \u00b7 two-vessel at-sea encounter (GFW Events)", "baseline": "", "caveats": "Co-location can be legitimate (joint operations, safety, shelter). | Apparent transshipment is inferred from proximity and low speed, not observed. | An inspection lead from GFW Events, not proof of illegal activity.", "caveat": "Co-location can be legitimate (joint operations, safety, shelter).", "innocent": "Two vessels meeting at sea can be a legitimate transfer, bunkering, or a safety stop; transshipment is a possibility to verify, not a certainty."}}, {"type": "Feature", "geometry": {"type": "Point", "coordinates": [123.597, 27.0912]}, "properties": {"id": "live_enco_a3a602096c089a", "kind": "encounter", "mpa": "At-sea encounter (transshipment)", "severity": "high", "severity_reason": "foreign vessel, no authorization on record", "when": "2026-10-05T14:50:00.000Z", "score": null, "vessel": "412433138", "ship_name": "ZHELONGGANGYU08908", "ship_type": "Fishing", "destination": "", "gear": "Encounter", "flag": "CN", "flag_emoji": "\ud83c\udde8\ud83c\uddf3", "eez": "Overlapping claim Senkaku Islands: Taiwan / Japan / China", "eez_sovereign": "Taiwan", "eez_foreign": true, "authorization": "no_record", "authorities": "", "iuu_listed": false, "iuu_label": "", "imo": "", "next_port": null, "evidence_hash": "6d634175201db4e23efa099b10a016838c1e37e05bb4bdd1871eae87ffe04c16", "evidence_schema": "seavigil-evidence-1.0", "why": "two vessels within range for 5 h \u00b7 counterpart: ZHELONGGANGYU05908 \u00b7 two-vessel at-sea encounter (GFW Events)", "why_full": "two vessels within range for 5 h \u00b7 counterpart: ZHELONGGANGYU05908 \u00b7 two-vessel at-sea encounter (GFW Events)", "baseline": "", "caveats": "Co-location can be legitimate (joint operations, safety, shelter). | Apparent transshipment is inferred from proximity and low speed, not observed. | An inspection lead from GFW Events, not proof of illegal activity.", "caveat": "Co-location can be legitimate (joint operations, safety, shelter).", "innocent": "Two vessels meeting at sea can be a legitimate transfer, bunkering, or a safety stop; transshipment is a possibility to verify, not a certainty."}}, {"type": "Feature", "geometry": {"type": "Point", "coordinates": [107.7256, 20.1244]}, "properties": {"id": "live_enco_a2cc52fef2e96f", "kind": "encounter", "mpa": "At-sea encounter (transshipment)", "severity": "high", "severity_reason": "foreign vessel, no authorization on record", "when": "2026-10-05T02:10:00.000Z", "score": null, "vessel": "450308100", "ship_name": "HUNG VAN   01    C12", "ship_type": "Fishing", "destination": "", "gear": "Encounter", "flag": "LB", "flag_emoji": "\ud83c\uddf1\ud83c\udde7", "eez": "Vietnamese Exclusive Economic Zone", "eez_sovereign": "Vietnam", "eez_foreign": true, "authorization": "no_record", "authorities": "", "iuu_listed": false, "iuu_label": "", "imo": "", "next_port": null, "evidence_hash": "903b5bdc65903f3f600c9dcbcd78e5d693f302cd86d2dbde9d2d84aada87d973", "evidence_schema": "seavigil-evidence-1.0", "why": "two vessels within range for 18 h \u00b7 counterpart: GIA1-DUNG-LAN>:C35 \u00b7 two-vessel at-sea encounter (GFW Events)", "why_full": "two vessels within range for 18 h \u00b7 counterpart: GIA1-DUNG-LAN>:C35 \u00b7 two-vessel at-sea encounter (GFW Events)", "baseline": "", "caveats": "Co-location can be legitimate (joint operations, safety, shelter). | Apparent transshipment is inferred from proximity and low speed, not observed. | An inspection lead from GFW Events, not proof of illegal activity.", "caveat": "Co-location can be legitimate (joint operations, safety, shelter).", "innocent": "Two vessels meeting at sea can be a legitimate transfer, bunkering, or a safety stop; transshipment is a possibility to verify, not a certainty."}}, {"type": "Feature", "geometry": {"type": "Point", "coordinates": [-18.3394, 20.1634]}, "properties": {"id": "live_ais__34c92680ec8f9f", "kind": "ais_disabling", "mpa": "AIS disabling (going dark)", "severity": "high", "severity_reason": "foreign vessel, no authorization on record", "when": "2026-10-05T06:08:31.000Z", "score": null, "vessel": "224742000", "ship_name": "MONTERAIOLA", "ship_type": "Fishing", "destination": "", "gear": "AIS gap", "flag": "ES", "flag_emoji": "\ud83c\uddea\ud83c\uddf8", "eez": "Mauritanian Exclusive Economic Zone", "eez_sovereign": "Mauritania", "eez_foreign": true, "authorization": "no_record", "authorities": "", "iuu_listed": false, "iuu_label": "", "imo": "", "next_port": null, "evidence_hash": "2a12d4e1520ac81e43fb20f1227f7ae2082e2ba4b08b99dae7c824a5e9e189f0", "evidence_schema": "seavigil-evidence-1.0", "why": "went dark 83 nm offshore for 13 h \u00b7 satellite-confirmed AIS gap (GFW Events)", "why_full": "went dark 83 nm offshore for 13 h \u00b7 satellite-confirmed AIS gap (GFW Events)", "baseline": "", "caveats": "AIS gaps can be reception loss, not always intentional disabling. | The position is where AIS dropped; the path while dark is unknown. | An inspection lead from GFW Events, not proof of illegal activity.", "caveat": "AIS gaps can be reception loss, not always intentional disabling.", "innocent": "Going dark is frequently benign: in open water, where gaps are commonly protecting a fishing ground or waiting out weather. It is most actionable inside or beside a closed zone."}}, {"type": "Feature", "geometry": {"type": "Point", "coordinates": [-19.2023, 19.9674]}, "properties": {"id": "live_ais__02744eb5f2d92b", "kind": "ais_disabling", "mpa": "AIS disabling (going dark)", "severity": "high", "severity_reason": "foreign vessel, authorization lapsed", "when": "2026-10-05T05:44:30.000Z", "score": null, "vessel": "359101000", "ship_name": "MONTEFRISA NUEVE", "ship_type": "Fishing", "destination": "", "gear": "AIS gap", "flag": "SV", "flag_emoji": "\ud83c\uddf8\ud83c\uddfb", "eez": "Overlapping claim Western Sahara: Western Sahara / Morocco", "eez_sovereign": "Western Sahara", "eez_foreign": true, "authorization": "authorization_lapsed", "authorities": "ICCAT", "iuu_listed": false, "iuu_label": "", "imo": "7409176", "next_port": null, "evidence_hash": "365f7cc5f21f563a7a652e0d44e7fcbd39de93437ec1eba8ada9a336675be874", "evidence_schema": "seavigil-evidence-1.0", "why": "went dark 152 nm offshore for 14 h \u00b7 satellite-confirmed AIS gap (GFW Events)", "why_full": "went dark 152 nm offshore for 14 h \u00b7 satellite-confirmed AIS gap (GFW Events)", "baseline": "", "caveats": "AIS gaps can be reception loss, not always intentional disabling. | The position is where AIS dropped; the path while dark is unknown. | An inspection lead from GFW Events, not proof of illegal activity.", "caveat": "AIS gaps can be reception loss, not always intentional disabling.", "innocent": "Going dark is frequently benign: in open water, where gaps are commonly protecting a fishing ground or waiting out weather. It is most actionable inside or beside a closed zone."}}, {"type": "Feature", "geometry": {"type": "Point", "coordinates": [123.9308, 32.7374]}, "properties": {"id": "live_enco_8e5f0d4dc741f0", "kind": "encounter", "mpa": "At-sea encounter (transshipment)", "severity": "high", "severity_reason": "foreign vessel, no authorization on record", "when": "2026-10-05T06:20:00.000Z", "score": null, "vessel": "412426353", "ship_name": "ZHEDAIYU14206", "ship_type": "Fishing", "destination": "", "gear": "Encounter", "flag": "CN", "flag_emoji": "\ud83c\udde8\ud83c\uddf3", "eez": "South Korean Exclusive Economic Zone", "eez_sovereign": "South Korea", "eez_foreign": true, "authorization": "no_record", "authorities": "", "iuu_listed": false, "iuu_label": "", "imo": "", "next_port": null, "evidence_hash": "00556e43f2570e9b142449cb132a3b3dda9c1b99fad072190a76bb5b9d19c544", "evidence_schema": "seavigil-evidence-1.0", "why": "two vessels within range for 12 h \u00b7 counterpart: 14206 \u00b7 two-vessel at-sea encounter (GFW Events)", "why_full": "two vessels within range for 12 h \u00b7 counterpart: 14206 \u00b7 two-vessel at-sea encounter (GFW Events)", "baseline": "", "caveats": "Co-location can be legitimate (joint operations, safety, shelter). | Apparent transshipment is inferred from proximity and low speed, not observed. | An inspection lead from GFW Events, not proof of illegal activity.", "caveat": "Co-location can be legitimate (joint operations, safety, shelter).", "innocent": "Two vessels meeting at sea can be a legitimate transfer, bunkering, or a safety stop; transshipment is a possibility to verify, not a certainty."}}, {"type": "Feature", "geometry": {"type": "Point", "coordinates": [149.0659, -0.7393]}, "properties": {"id": "live_enco_81ed7836098335", "kind": "encounter", "mpa": "At-sea encounter (transshipment)", "severity": "high", "severity_reason": "foreign vessel, authorization lapsed", "when": "2026-10-05T14:20:00.000Z", "score": null, "vessel": "548957000", "ship_name": "QUEEN JINA 101", "ship_type": "Fishing", "destination": "", "gear": "Encounter", "flag": "PH", "flag_emoji": "\ud83c\uddf5\ud83c\udded", "eez": "Papua New Guinean Exclusive Economic Zone", "eez_sovereign": "Papua New Guinea", "eez_foreign": true, "authorization": "authorization_lapsed", "authorities": "FFA, IOTC, WCPFC", "iuu_listed": false, "iuu_label": "", "imo": "9016545", "next_port": null, "evidence_hash": "89d3987142e2795f441e31f9a7f733f034a9fb3f9f1e7af2b62e111a60c96dde", "evidence_schema": "seavigil-evidence-1.0", "why": "two vessels within range for 4 h \u00b7 counterpart: ANGEL NO.2 \u00b7 two-vessel at-sea encounter (GFW Events)", "why_full": "two vessels within range for 4 h \u00b7 counterpart: ANGEL NO.2 \u00b7 two-vessel at-sea encounter (GFW Events)", "baseline": "", "caveats": "Co-location can be legitimate (joint operations, safety, shelter). | Apparent transshipment is inferred from proximity and low speed, not observed. | An inspection lead from GFW Events, not proof of illegal activity.", "caveat": "Co-location can be legitimate (joint operations, safety, shelter).", "innocent": "Two vessels meeting at sea can be a legitimate transfer, bunkering, or a safety stop; transshipment is a possibility to verify, not a certainty."}}, {"type": "Feature", "geometry": {"type": "Point", "coordinates": [-42.8183, -25.5994]}, "properties": {"id": "live_ais__8d82cc4b5b5e89", "kind": "ais_disabling", "mpa": "AIS disabling (going dark)", "severity": "high", "severity_reason": "foreign vessel, no authorization on record", "when": "2026-10-04T18:30:14.000Z", "score": null, "vessel": "533132177", "ship_name": "EAGLE CAMPOS", "ship_type": "Other", "destination": "", "gear": "AIS gap", "flag": "MY", "flag_emoji": "\ud83c\uddf2\ud83c\uddfe", "eez": "Brazilian Exclusive Economic Zone", "eez_sovereign": "Brazil", "eez_foreign": true, "authorization": "no_record", "authorities": "", "iuu_listed": false, "iuu_label": "", "imo": "", "next_port": null, "evidence_hash": "48bb447f740789e7ad71ec365e56afd8fb6238a5ddb6d9ff74c07501ef6ff224", "evidence_schema": "seavigil-evidence-1.0", "why": "went dark 153 nm offshore for 23 h \u00b7 satellite-confirmed AIS gap (GFW Events)", "why_full": "went dark 153 nm offshore for 23 h \u00b7 satellite-confirmed AIS gap (GFW Events)", "baseline": "", "caveats": "AIS gaps can be reception loss, not always intentional disabling. | The position is where AIS dropped; the path while dark is unknown. | An inspection lead from GFW Events, not proof of illegal activity.", "caveat": "AIS gaps can be reception loss, not always intentional disabling.", "innocent": "Going dark is frequently benign: in open water, where gaps are commonly protecting a fishing ground or waiting out weather. It is most actionable inside or beside a closed zone."}}, {"type": "Feature", "geometry": {"type": "Point", "coordinates": [171.7832, -49.2946]}, "properties": {"id": "live_ais__357a9f04f349b7", "kind": "ais_disabling", "mpa": "AIS disabling (going dark)", "severity": "high", "severity_reason": "foreign vessel, no authorization on record", "when": "2026-10-03T14:37:44.000Z", "score": null, "vessel": "250400394", "ship_name": "250400394", "ship_type": "Other", "destination": "", "gear": "AIS gap", "flag": "IE", "flag_emoji": "\ud83c\uddee\ud83c\uddea", "eez": "New Zealand Exclusive Economic Zone", "eez_sovereign": "New Zealand", "eez_foreign": true, "authorization": "no_record", "authorities": "", "iuu_listed": false, "iuu_label": "", "imo": "", "next_port": null, "evidence_hash": "5b7a3a97f2ccb1be40f2cebb905fa5caf5655a3bf4e1066a9c2ecd14d9dfd84c", "evidence_schema": "seavigil-evidence-1.0", "why": "went dark 185 nm offshore for 50 h \u00b7 satellite-confirmed AIS gap (GFW Events)", "why_full": "went dark 185 nm offshore for 50 h \u00b7 satellite-confirmed AIS gap (GFW Events)", "baseline": "", "caveats": "AIS gaps can be reception loss, not always intentional disabling. | The position is where AIS dropped; the path while dark is unknown. | An inspection lead from GFW Events, not proof of illegal activity.", "caveat": "AIS gaps can be reception loss, not always intentional disabling.", "innocent": "Going dark is frequently benign: in open water, where gaps are commonly protecting a fishing ground or waiting out weather. It is most actionable inside or beside a closed zone."}}, {"type": "Feature", "geometry": {"type": "Point", "coordinates": [-30.6312, 0.0142]}, "properties": {"id": "live_ais__31e17bc38279e2", "kind": "ais_disabling", "mpa": "AIS disabling (going dark)", "severity": "high", "severity_reason": "foreign vessel, no authorization on record", "when": "2026-09-30T13:12:46.000Z", "score": null, "vessel": "257199000", "ship_name": "BOW COMPASS", "ship_type": "Other", "destination": "", "gear": "AIS gap", "flag": "NO", "flag_emoji": "\ud83c\uddf3\ud83c\uddf4", "eez": "Brazilian Exclusive Economic Zone", "eez_sovereign": "Brazil", "eez_foreign": true, "authorization": "no_record", "authorities": "", "iuu_listed": false, "iuu_label": "", "imo": "9412737", "next_port": null, "evidence_hash": "0d2c374e04a17457eb51b6f8e7b38788ab5200af7fae47d62ffc6b0e4d7e851f", "evidence_schema": "seavigil-evidence-1.0", "why": "went dark 172 nm offshore for 123 h \u00b7 satellite-confirmed AIS gap (GFW Events)", "why_full": "went dark 172 nm offshore for 123 h \u00b7 satellite-confirmed AIS gap (GFW Events)", "baseline": "", "caveats": "AIS gaps can be reception loss, not always intentional disabling. | The position is where AIS dropped; the path while dark is unknown. | An inspection lead from GFW Events, not proof of illegal activity.", "caveat": "AIS gaps can be reception loss, not always intentional disabling.", "innocent": "Going dark is frequently benign: in open water, where gaps are commonly protecting a fishing ground or waiting out weather. It is most actionable inside or beside a closed zone."}}, {"type": "Feature", "geometry": {"type": "Point", "coordinates": [-178.5777, -26.3271]}, "properties": {"id": "live_ais__3efd0c1ab9a4cf", "kind": "ais_disabling", "mpa": "AIS disabling (going dark)", "severity": "high", "severity_reason": "foreign vessel, no authorization on record", "when": "2026-10-04T13:12:57.000Z", "score": null, "vessel": "211423170", "ship_name": "JOSA", "ship_type": "Passenger", "destination": "", "gear": "AIS gap", "flag": "DE", "flag_emoji": "\ud83c\udde9\ud83c\uddea", "eez": "New Zealand Exclusive Economic Zone", "eez_sovereign": "New Zealand", "eez_foreign": true, "authorization": "no_record", "authorities": "", "iuu_listed": false, "iuu_label": "", "imo": "", "next_port": null, "evidence_hash": "972ba6e1a8fedcc3036e990a7f6923347b1d4d6ea9676a2fda84f8daa4c561f8", "evidence_schema": "seavigil-evidence-1.0", "why": "went dark 201 nm offshore for 26 h \u00b7 satellite-confirmed AIS gap (GFW Events)", "why_full": "went dark 201 nm offshore for 26 h \u00b7 satellite-confirmed AIS gap (GFW Events)", "baseline": "", "caveats": "AIS gaps can be reception loss, not always intentional disabling. | The position is where AIS dropped; the path while dark is unknown. | An inspection lead from GFW Events, not proof of illegal activity.", "caveat": "AIS gaps can be reception loss, not always intentional disabling.", "innocent": "Going dark is frequently benign: in open water, where gaps are commonly protecting a fishing ground or waiting out weather. It is most actionable inside or beside a closed zone."}}, {"type": "Feature", "geometry": {"type": "Point", "coordinates": [70.8131, -3.3393]}, "properties": {"id": "live_ais__16df05a16c022b", "kind": "ais_disabling", "mpa": "AIS disabling (going dark)", "severity": "high", "severity_reason": "foreign vessel, no authorization on record", "when": "2026-10-03T05:11:06.000Z", "score": null, "vessel": "538011034", "ship_name": "MOUNTAIN LION", "ship_type": "Cargo", "destination": "", "gear": "AIS gap", "flag": "MH", "flag_emoji": "\ud83c\uddf2\ud83c\udded", "eez": "Mauritian Exclusive Economic Zone (Chagos Archipelago)", "eez_sovereign": "Republic of Mauritius", "eez_foreign": true, "authorization": "no_record", "authorities": "", "iuu_listed": false, "iuu_label": "", "imo": "", "next_port": null, "evidence_hash": "311a26b9707508d63c11bd97eb76bf4fea9e63c2e80dfa70b658d4606880744d", "evidence_schema": "seavigil-evidence-1.0", "why": "went dark 234 nm offshore for 58 h \u00b7 satellite-confirmed AIS gap (GFW Events)", "why_full": "went dark 234 nm offshore for 58 h \u00b7 satellite-confirmed AIS gap (GFW Events)", "baseline": "", "caveats": "AIS gaps can be reception loss, not always intentional disabling. | The position is where AIS dropped; the path while dark is unknown. | An inspection lead from GFW Events, not proof of illegal activity.", "caveat": "AIS gaps can be reception loss, not always intentional disabling.", "innocent": "Going dark is frequently benign: in open water, where gaps are commonly protecting a fishing ground or waiting out weather. It is most actionable inside or beside a closed zone."}}, {"type": "Feature", "geometry": {"type": "Point", "coordinates": [-158.1811, -6.2298]}, "properties": {"id": "live_ais__0a1c656a41e6ef", "kind": "ais_disabling", "mpa": "AIS disabling (going dark)", "severity": "high", "severity_reason": "foreign vessel, no authorization on record", "when": "2026-10-04T13:40:02.000Z", "score": null, "vessel": "412123408", "ship_name": "SYY30-2024-08-99%", "ship_type": "Other", "destination": "", "gear": "AIS gap", "flag": "CN", "flag_emoji": "\ud83c\udde8\ud83c\uddf3", "eez": "Kiribati Exclusive Economic Zone (Line Group)", "eez_sovereign": "Kiribati", "eez_foreign": true, "authorization": "no_record", "authorities": "", "iuu_listed": false, "iuu_label": "", "imo": "", "next_port": null, "evidence_hash": "2be87c829a4aedb4bf21b77f4b712bbf664843fe910c0a557d6e5b3712c0776c", "evidence_schema": "seavigil-evidence-1.0", "why": "went dark 93 nm offshore for 23 h \u00b7 satellite-confirmed AIS gap (GFW Events)", "why_full": "went dark 93 nm offshore for 23 h \u00b7 satellite-confirmed AIS gap (GFW Events)", "baseline": "", "caveats": "AIS gaps can be reception loss, not always intentional disabling. | The position is where AIS dropped; the path while dark is unknown. | An inspection lead from GFW Events, not proof of illegal activity.", "caveat": "AIS gaps can be reception loss, not always intentional disabling.", "innocent": "Going dark is frequently benign: in open water, where gaps are commonly protecting a fishing ground or waiting out weather. It is most actionable inside or beside a closed zone."}}, {"type": "Feature", "geometry": {"type": "Point", "coordinates": [-87.4274, -2.7507]}, "properties": {"id": "live_ais__594512c998990a", "kind": "ais_disabling", "mpa": "AIS disabling (going dark)", "severity": "high", "severity_reason": "foreign vessel, no authorization on record", "when": "2026-10-03T21:31:13.000Z", "score": null, "vessel": "412552209", "ship_name": "BOYA 9 AMELIA 100%", "ship_type": "Gear", "destination": "", "gear": "AIS gap", "flag": "CN", "flag_emoji": "\ud83c\udde8\ud83c\uddf3", "eez": "Ecuadorian Exclusive Economic Zone (Galapagos)", "eez_sovereign": "Ecuador", "eez_foreign": true, "authorization": "no_record", "authorities": "", "iuu_listed": false, "iuu_label": "", "imo": "", "next_port": null, "evidence_hash": "edb66b58001c89e57f83dbaa5dd41b6c17f9594a90dd3aeae0353eb386361d20", "evidence_schema": "seavigil-evidence-1.0", "why": "went dark 126 nm offshore for 39 h \u00b7 satellite-confirmed AIS gap (GFW Events)", "why_full": "went dark 126 nm offshore for 39 h \u00b7 satellite-confirmed AIS gap (GFW Events)", "baseline": "", "caveats": "AIS gaps can be reception loss, not always intentional disabling. | The position is where AIS dropped; the path while dark is unknown. | An inspection lead from GFW Events, not proof of illegal activity.", "caveat": "AIS gaps can be reception loss, not always intentional disabling.", "innocent": "Going dark is frequently benign: in open water, where gaps are commonly protecting a fishing ground or waiting out weather. It is most actionable inside or beside a closed zone."}}, {"type": "Feature", "geometry": {"type": "Point", "coordinates": [-158.1634, -6.2343]}, "properties": {"id": "live_ais__0496bc2b337316", "kind": "ais_disabling", "mpa": "AIS disabling (going dark)", "severity": "high", "severity_reason": "foreign vessel, no authorization on record", "when": "2026-10-04T13:31:50.000Z", "score": null, "vessel": "412123402", "ship_name": "SYY30-2024-02-80%", "ship_type": "Other", "destination": "", "gear": "AIS gap", "flag": "CN", "flag_emoji": "\ud83c\udde8\ud83c\uddf3", "eez": "Kiribati Exclusive Economic Zone (Line Group)", "eez_sovereign": "Kiribati", "eez_foreign": true, "authorization": "no_record", "authorities": "", "iuu_listed": false, "iuu_label": "", "imo": "", "next_port": null, "evidence_hash": "5062b7438f20e3bd173693661a4f5ddadbbb55629bcd2944fe03886aa8ab8a62", "evidence_schema": "seavigil-evidence-1.0", "why": "went dark 93 nm offshore for 23 h \u00b7 satellite-confirmed AIS gap (GFW Events)", "why_full": "went dark 93 nm offshore for 23 h \u00b7 satellite-confirmed AIS gap (GFW Events)", "baseline": "", "caveats": "AIS gaps can be reception loss, not always intentional disabling. | The position is where AIS dropped; the path while dark is unknown. | An inspection lead from GFW Events, not proof of illegal activity.", "caveat": "AIS gaps can be reception loss, not always intentional disabling.", "innocent": "Going dark is frequently benign: in open water, where gaps are commonly protecting a fishing ground or waiting out weather. It is most actionable inside or beside a closed zone."}}, {"type": "Feature", "geometry": {"type": "Point", "coordinates": [46.2852, -26.7379]}, "properties": {"id": "live_ais__0c4a97616a1412", "kind": "ais_disabling", "mpa": "AIS disabling (going dark)", "severity": "high", "severity_reason": "foreign vessel, no authorization on record", "when": "2026-10-03T07:28:30.000Z", "score": null, "vessel": "249272000", "ship_name": "DELTA MARIA", "ship_type": "Cargo", "destination": "", "gear": "AIS gap", "flag": "MT", "flag_emoji": "\ud83c\uddf2\ud83c\uddf9", "eez": "Madagascan Exclusive Economic Zone", "eez_sovereign": "Madagascar", "eez_foreign": true, "authorization": "no_record", "authorities": "", "iuu_listed": false, "iuu_label": "", "imo": "", "next_port": null, "evidence_hash": "d61678b233020cfe684208f0f854763423cca92e43dc718384b68c037e9b378c", "evidence_schema": "seavigil-evidence-1.0", "why": "went dark 221 nm offshore for 51 h \u00b7 satellite-confirmed AIS gap (GFW Events)", "why_full": "went dark 221 nm offshore for 51 h \u00b7 satellite-confirmed AIS gap (GFW Events)", "baseline": "", "caveats": "AIS gaps can be reception loss, not always intentional disabling. | The position is where AIS dropped; the path while dark is unknown. | An inspection lead from GFW Events, not proof of illegal activity.", "caveat": "AIS gaps can be reception loss, not always intentional disabling.", "innocent": "Going dark is frequently benign: in open water, where gaps are commonly protecting a fishing ground or waiting out weather. It is most actionable inside or beside a closed zone."}}, {"type": "Feature", "geometry": {"type": "Point", "coordinates": [150.7324, -4.5097]}, "properties": {"id": "live_ais__4fab9b2b1d16fe", "kind": "ais_disabling", "mpa": "AIS disabling (going dark)", "severity": "high", "severity_reason": "foreign vessel, no authorization on record", "when": "2026-10-02T20:47:39.000Z", "score": null, "vessel": "224072000", "ship_name": "SEVILLA KNUTSEN", "ship_type": "Other", "destination": "", "gear": "AIS gap", "flag": "ES", "flag_emoji": "\ud83c\uddea\ud83c\uddf8", "eez": "Papua New Guinean Exclusive Economic Zone", "eez_sovereign": "Papua New Guinea", "eez_foreign": true, "authorization": "no_record", "authorities": "", "iuu_listed": false, "iuu_label": "", "imo": "9414632", "next_port": null, "evidence_hash": "5a8c446ba6667e01020be17669280cc7222495071f22eb6bbebeebf12b8adaab", "evidence_schema": "seavigil-evidence-1.0", "why": "went dark 227 nm offshore for 61 h \u00b7 satellite-confirmed AIS gap (GFW Events)", "why_full": "went dark 227 nm offshore for 61 h \u00b7 satellite-confirmed AIS gap (GFW Events)", "baseline": "", "caveats": "AIS gaps can be reception loss, not always intentional disabling. | The position is where AIS dropped; the path while dark is unknown. | An inspection lead from GFW Events, not proof of illegal activity.", "caveat": "AIS gaps can be reception loss, not always intentional disabling.", "innocent": "Going dark is frequently benign: in open water, where gaps are commonly protecting a fishing ground or waiting out weather. It is most actionable inside or beside a closed zone."}}, {"type": "Feature", "geometry": {"type": "Point", "coordinates": [176.2434, -21.808]}, "properties": {"id": "live_ais__4762c60603e1b3", "kind": "ais_disabling", "mpa": "AIS disabling (going dark)", "severity": "high", "severity_reason": "foreign vessel, no authorization on record", "when": "2026-10-04T16:41:08.000Z", "score": null, "vessel": "269111680", "ship_name": "DJANGO", "ship_type": "Passenger", "destination": "", "gear": "AIS gap", "flag": "CH", "flag_emoji": "\ud83c\udde8\ud83c\udded", "eez": "Fijian Exclusive Economic Zone", "eez_sovereign": "Fiji", "eez_foreign": true, "authorization": "no_record", "authorities": "", "iuu_listed": false, "iuu_label": "", "imo": "", "next_port": null, "evidence_hash": "18fa77acb1a80ada418708566ca388924300fc7f81940ac535b8d81f09d4aa00", "evidence_schema": "seavigil-evidence-1.0", "why": "went dark 157 nm offshore for 16 h \u00b7 satellite-confirmed AIS gap (GFW Events)", "why_full": "went dark 157 nm offshore for 16 h \u00b7 satellite-confirmed AIS gap (GFW Events)", "baseline": "", "caveats": "AIS gaps can be reception loss, not always intentional disabling. | The position is where AIS dropped; the path while dark is unknown. | An inspection lead from GFW Events, not proof of illegal activity.", "caveat": "AIS gaps can be reception loss, not always intentional disabling.", "innocent": "Going dark is frequently benign: in open water, where gaps are commonly protecting a fishing ground or waiting out weather. It is most actionable inside or beside a closed zone."}}, {"type": "Feature", "geometry": {"type": "Point", "coordinates": [-15.1091, 6.2998]}, "properties": {"id": "live_ais__ff04305dbb85c3", "kind": "ais_disabling", "mpa": "AIS disabling (going dark)", "severity": "high", "severity_reason": "foreign vessel, no authorization on record", "when": "2026-10-04T17:35:04.000Z", "score": null, "vessel": "311001354", "ship_name": "NESTOR RAY", "ship_type": "Cargo", "destination": "", "gear": "AIS gap", "flag": "BS", "flag_emoji": "\ud83c\udde7\ud83c\uddf8", "eez": "Sierra Leonean Exclusive Economic Zone", "eez_sovereign": "Sierra Leone", "eez_foreign": true, "authorization": "no_record", "authorities": "", "iuu_listed": false, "iuu_label": "", "imo": "", "next_port": null, "evidence_hash": "682f7621a5ac9ba2ffdaa9470596cec287c3b6a2a18fd6c4040988062c2972aa", "evidence_schema": "seavigil-evidence-1.0", "why": "went dark 147 nm offshore for 15 h \u00b7 satellite-confirmed AIS gap (GFW Events)", "why_full": "went dark 147 nm offshore for 15 h \u00b7 satellite-confirmed AIS gap (GFW Events)", "baseline": "", "caveats": "AIS gaps can be reception loss, not always intentional disabling. | The position is where AIS dropped; the path while dark is unknown. | An inspection lead from GFW Events, not proof of illegal activity.", "caveat": "AIS gaps can be reception loss, not always intentional disabling.", "innocent": "Going dark is frequently benign: in open water, where gaps are commonly protecting a fishing ground or waiting out weather. It is most actionable inside or beside a closed zone."}}, {"type": "Feature", "geometry": {"type": "Point", "coordinates": [-168.1116, -17.8752]}, "properties": {"id": "live_ais__ed9e343e7ead86", "kind": "ais_disabling", "mpa": "AIS disabling (going dark)", "severity": "high", "severity_reason": "foreign vessel, no authorization on record", "when": "2026-09-18T05:20:41.000Z", "score": null, "vessel": "412124318", "ship_name": "SYY2024-18-99%", "ship_type": "Gear", "destination": "", "gear": "AIS gap", "flag": "CN", "flag_emoji": "\ud83c\udde8\ud83c\uddf3", "eez": "New Zealand Exclusive Economic Zone (Niue)", "eez_sovereign": "New Zealand", "eez_foreign": true, "authorization": "no_record", "authorities": "", "iuu_listed": false, "iuu_label": "", "imo": "", "next_port": null, "evidence_hash": "730c4febfd5d4a67ac5fd0c0f24a89572727dd06ea38c99f28f911460311aa49", "evidence_schema": "seavigil-evidence-1.0", "why": "went dark 150 nm offshore for 411 h \u00b7 satellite-confirmed AIS gap (GFW Events)", "why_full": "went dark 150 nm offshore for 411 h \u00b7 satellite-confirmed AIS gap (GFW Events)", "baseline": "", "caveats": "AIS gaps can be reception loss, not always intentional disabling. | The position is where AIS dropped; the path while dark is unknown. | An inspection lead from GFW Events, not proof of illegal activity.", "caveat": "AIS gaps can be reception loss, not always intentional disabling.", "innocent": "Going dark is frequently benign: in open water, where gaps are commonly protecting a fishing ground or waiting out weather. It is most actionable inside or beside a closed zone."}}, {"type": "Feature", "geometry": {"type": "Point", "coordinates": [135.91, 22.7305]}, "properties": {"id": "live_ais__ebe065b3ff962f", "kind": "ais_disabling", "mpa": "AIS disabling (going dark)", "severity": "high", "severity_reason": "foreign vessel, no authorization on record", "when": "2026-10-04T19:05:57.000Z", "score": null, "vessel": "564856000", "ship_name": "RTM DHAMBUL", "ship_type": "Other", "destination": "", "gear": "AIS gap", "flag": "SG", "flag_emoji": "\ud83c\uddf8\ud83c\uddec", "eez": "Japanese Exclusive Economic Zone", "eez_sovereign": "Japan", "eez_foreign": true, "authorization": "no_record", "authorities": "", "iuu_listed": false, "iuu_label": "", "imo": "", "next_port": null, "evidence_hash": "3d1397ea5267d7a284c1cd3225d269f67df730a611b1c11676f72ab151fc981d", "evidence_schema": "seavigil-evidence-1.0", "why": "went dark 239 nm offshore for 12 h \u00b7 satellite-confirmed AIS gap (GFW Events)", "why_full": "went dark 239 nm offshore for 12 h \u00b7 satellite-confirmed AIS gap (GFW Events)", "baseline": "", "caveats": "AIS gaps can be reception loss, not always intentional disabling. | The position is where AIS dropped; the path while dark is unknown. | An inspection lead from GFW Events, not proof of illegal activity.", "caveat": "AIS gaps can be reception loss, not always intentional disabling.", "innocent": "Going dark is frequently benign: in open water, where gaps are commonly protecting a fishing ground or waiting out weather. It is most actionable inside or beside a closed zone."}}, {"type": "Feature", "geometry": {"type": "Point", "coordinates": [-26.2859, 17.003]}, "properties": {"id": "live_ais__0c0ec25883b3f6", "kind": "ais_disabling", "mpa": "AIS disabling (going dark)", "severity": "high", "severity_reason": "foreign vessel, no authorization on record", "when": "2026-10-04T05:50:08.000Z", "score": null, "vessel": "351251000", "ship_name": "WATER LILY", "ship_type": "Cargo", "destination": "", "gear": "AIS gap", "flag": "PA", "flag_emoji": "\ud83c\uddf5\ud83c\udde6", "eez": "Cape Verdean Exclusive Economic Zone", "eez_sovereign": "Cape Verde", "eez_foreign": true, "authorization": "no_record", "authorities": "", "iuu_listed": false, "iuu_label": "", "imo": "9608221", "next_port": null, "evidence_hash": "06524bba399b4419709e0205b6d71ea98790dbea8426b3ceedb55afa1183219b", "evidence_schema": "seavigil-evidence-1.0", "why": "went dark 131 nm offshore for 25 h \u00b7 satellite-confirmed AIS gap (GFW Events)", "why_full": "went dark 131 nm offshore for 25 h \u00b7 satellite-confirmed AIS gap (GFW Events)", "baseline": "", "caveats": "AIS gaps can be reception loss, not always intentional disabling. | The position is where AIS dropped; the path while dark is unknown. | An inspection lead from GFW Events, not proof of illegal activity.", "caveat": "AIS gaps can be reception loss, not always intentional disabling.", "innocent": "Going dark is frequently benign: in open water, where gaps are commonly protecting a fishing ground or waiting out weather. It is most actionable inside or beside a closed zone."}}, {"type": "Feature", "geometry": {"type": "Point", "coordinates": [-43.209, -25.677]}, "properties": {"id": "live_ais__54124fb5a9b3d5", "kind": "ais_disabling", "mpa": "AIS disabling (going dark)", "severity": "high", "severity_reason": "foreign vessel, no authorization on record", "when": "2026-10-04T17:00:26.000Z", "score": null, "vessel": "563104300", "ship_name": "EAGLE PETROLINA", "ship_type": "Other", "destination": "", "gear": "AIS gap", "flag": "SG", "flag_emoji": "\ud83c\uddf8\ud83c\uddec", "eez": "Brazilian Exclusive Economic Zone", "eez_sovereign": "Brazil", "eez_foreign": true, "authorization": "no_record", "authorities": "", "iuu_listed": false, "iuu_label": "", "imo": "", "next_port": null, "evidence_hash": "e766c77e185e41a1bf722f5e99f99f11aed1935e66b19c73481924ed3b198c8f", "evidence_schema": "seavigil-evidence-1.0", "why": "went dark 152 nm offshore for 13 h \u00b7 satellite-confirmed AIS gap (GFW Events)", "why_full": "went dark 152 nm offshore for 13 h \u00b7 satellite-confirmed AIS gap (GFW Events)", "baseline": "", "caveats": "AIS gaps can be reception loss, not always intentional disabling. | The position is where AIS dropped; the path while dark is unknown. | An inspection lead from GFW Events, not proof of illegal activity.", "caveat": "AIS gaps can be reception loss, not always intentional disabling.", "innocent": "Going dark is frequently benign: in open water, where gaps are commonly protecting a fishing ground or waiting out weather. It is most actionable inside or beside a closed zone."}}, {"type": "Feature", "geometry": {"type": "Point", "coordinates": [41.8999, -27.385]}, "properties": {"id": "live_ais__6fc7c5dad45bfd", "kind": "ais_disabling", "mpa": "AIS disabling (going dark)", "severity": "high", "severity_reason": "foreign vessel, no authorization on record", "when": "2026-09-30T15:49:57.000Z", "score": null, "vessel": "352001340", "ship_name": "FYM SAPPHIRA", "ship_type": "Cargo", "destination": "", "gear": "AIS gap", "flag": "PA", "flag_emoji": "\ud83c\uddf5\ud83c\udde6", "eez": "Madagascan Exclusive Economic Zone", "eez_sovereign": "Madagascar", "eez_foreign": true, "authorization": "no_record", "authorities": "", "iuu_listed": false, "iuu_label": "", "imo": "", "next_port": null, "evidence_hash": "0e525cc68c7c9e71c1d5c3707ab4a9d99cacce8a9040e895beee015b333af040", "evidence_schema": "seavigil-evidence-1.0", "why": "went dark 103 nm offshore for 110 h \u00b7 satellite-confirmed AIS gap (GFW Events)", "why_full": "went dark 103 nm offshore for 110 h \u00b7 satellite-confirmed AIS gap (GFW Events)", "baseline": "", "caveats": "AIS gaps can be reception loss, not always intentional disabling. | The position is where AIS dropped; the path while dark is unknown. | An inspection lead from GFW Events, not proof of illegal activity.", "caveat": "AIS gaps can be reception loss, not always intentional disabling.", "innocent": "Going dark is frequently benign: in open water, where gaps are commonly protecting a fishing ground or waiting out weather. It is most actionable inside or beside a closed zone."}}, {"type": "Feature", "geometry": {"type": "Point", "coordinates": [-168.3964, -17.7794]}, "properties": {"id": "live_ais__1e822baff64db6", "kind": "ais_disabling", "mpa": "AIS disabling (going dark)", "severity": "high", "severity_reason": "foreign vessel, no authorization on record", "when": "2026-09-18T21:18:48.000Z", "score": null, "vessel": "412124208", "ship_name": "SYY40-2024-08-99%", "ship_type": "Gear", "destination": "", "gear": "AIS gap", "flag": "CN", "flag_emoji": "\ud83c\udde8\ud83c\uddf3", "eez": "New Zealand Exclusive Economic Zone (Niue)", "eez_sovereign": "New Zealand", "eez_foreign": true, "authorization": "no_record", "authorities": "", "iuu_listed": false, "iuu_label": "", "imo": "", "next_port": null, "evidence_hash": "5ae9353f148270f9379091e0047bee148ffc513c689b1028393d7ad273469cc3", "evidence_schema": "seavigil-evidence-1.0", "why": "went dark 174 nm offshore for 392 h \u00b7 satellite-confirmed AIS gap (GFW Events)", "why_full": "went dark 174 nm offshore for 392 h \u00b7 satellite-confirmed AIS gap (GFW Events)", "baseline": "", "caveats": "AIS gaps can be reception loss, not always intentional disabling. | The position is where AIS dropped; the path while dark is unknown. | An inspection lead from GFW Events, not proof of illegal activity.", "caveat": "AIS gaps can be reception loss, not always intentional disabling.", "innocent": "Going dark is frequently benign: in open water, where gaps are commonly protecting a fishing ground or waiting out weather. It is most actionable inside or beside a closed zone."}}, {"type": "Feature", "geometry": {"type": "Point", "coordinates": [-73.6938, 15.1603]}, "properties": {"id": "live_ais__df648b285eee7c", "kind": "ais_disabling", "mpa": "AIS disabling (going dark)", "severity": "high", "severity_reason": "foreign vessel, no authorization on record", "when": "2026-10-04T10:02:33.000Z", "score": null, "vessel": "311000863", "ship_name": "MEDITERRANEANVOYAGER", "ship_type": "Other", "destination": "", "gear": "AIS gap", "flag": "BS", "flag_emoji": "\ud83c\udde7\ud83c\uddf8", "eez": "Haitian Exclusive Economic Zone", "eez_sovereign": "Haiti", "eez_foreign": true, "authorization": "no_record", "authorities": "", "iuu_listed": false, "iuu_label": "", "imo": "", "next_port": null, "evidence_hash": "e9f34e1fa92d81c30f01a73fe06b4b2d5b319227a026ff81974b771cb47bd287", "evidence_schema": "seavigil-evidence-1.0", "why": "went dark 88 nm offshore for 18 h \u00b7 satellite-confirmed AIS gap (GFW Events)", "why_full": "went dark 88 nm offshore for 18 h \u00b7 satellite-confirmed AIS gap (GFW Events)", "baseline": "", "caveats": "AIS gaps can be reception loss, not always intentional disabling. | The position is where AIS dropped; the path while dark is unknown. | An inspection lead from GFW Events, not proof of illegal activity.", "caveat": "AIS gaps can be reception loss, not always intentional disabling.", "innocent": "Going dark is frequently benign: in open water, where gaps are commonly protecting a fishing ground or waiting out weather. It is most actionable inside or beside a closed zone."}}, {"type": "Feature", "geometry": {"type": "Point", "coordinates": [-174.9797, 55.0473]}, "properties": {"id": "live_ais__0666327116507a", "kind": "ais_disabling", "mpa": "AIS disabling (going dark)", "severity": "high", "severity_reason": "foreign vessel, no authorization on record", "when": "2026-10-03T23:38:33.000Z", "score": null, "vessel": "538005624", "ship_name": "WIDE ALPHA", "ship_type": "Cargo", "destination": "", "gear": "AIS gap", "flag": "MH", "flag_emoji": "\ud83c\uddf2\ud83c\udded", "eez": "United States Exclusive Economic Zone (Alaska)", "eez_sovereign": "United States", "eez_foreign": true, "authorization": "no_record", "authorities": "", "iuu_listed": false, "iuu_label": "", "imo": "", "next_port": null, "evidence_hash": "f2a0836420ecdc11fdf0d7fbccdf415330706c7ce8595a3cc1760de0ec00f2b2", "evidence_schema": "seavigil-evidence-1.0", "why": "went dark 96 nm offshore for 28 h \u00b7 satellite-confirmed AIS gap (GFW Events)", "why_full": "went dark 96 nm offshore for 28 h \u00b7 satellite-confirmed AIS gap (GFW Events)", "baseline": "", "caveats": "AIS gaps can be reception loss, not always intentional disabling. | The position is where AIS dropped; the path while dark is unknown. | An inspection lead from GFW Events, not proof of illegal activity.", "caveat": "AIS gaps can be reception loss, not always intentional disabling.", "innocent": "Going dark is frequently benign: in open water, where gaps are commonly protecting a fishing ground or waiting out weather. It is most actionable inside or beside a closed zone."}}, {"type": "Feature", "geometry": {"type": "Point", "coordinates": [-17.5787, 19.9808]}, "properties": {"id": "live_ais__bcf7c4f35b4e46", "kind": "ais_disabling", "mpa": "AIS disabling (going dark)", "severity": "high", "severity_reason": "foreign vessel, no authorization on record", "when": "2026-10-02T08:20:20.000Z", "score": null, "vessel": "617031000", "ship_name": "PRAIA GRANDE", "ship_type": "Fishing", "destination": "", "gear": "AIS gap", "flag": "CV", "flag_emoji": "\ud83c\udde8\ud83c\uddfb", "eez": "Mauritanian Exclusive Economic Zone", "eez_sovereign": "Mauritania", "eez_foreign": true, "authorization": "no_record", "authorities": "", "iuu_listed": false, "iuu_label": "", "imo": "", "next_port": null, "evidence_hash": "95f0faedf138b5e2d169eea1b1da036254fb6b4b70fda1436400fd92690f4cb3", "evidence_schema": "seavigil-evidence-1.0", "why": "went dark 55 nm offshore for 66 h \u00b7 satellite-confirmed AIS gap (GFW Events)", "why_full": "went dark 55 nm offshore for 66 h \u00b7 satellite-confirmed AIS gap (GFW Events)", "baseline": "", "caveats": "AIS gaps can be reception loss, not always intentional disabling. | The position is where AIS dropped; the path while dark is unknown. | An inspection lead from GFW Events, not proof of illegal activity.", "caveat": "AIS gaps can be reception loss, not always intentional disabling.", "innocent": "Going dark is frequently benign: in open water, where gaps are commonly protecting a fishing ground or waiting out weather. It is most actionable inside or beside a closed zone."}}, {"type": "Feature", "geometry": {"type": "Point", "coordinates": [113.1583, -10.776]}, "properties": {"id": "live_ais__29ea26fca59c03", "kind": "ais_disabling", "mpa": "AIS disabling (going dark)", "severity": "high", "severity_reason": "foreign vessel, no authorization on record", "when": "2026-10-04T13:28:52.000Z", "score": null, "vessel": "563211600", "ship_name": "GAS NOUVEAU BAUHINIA", "ship_type": "Other", "destination": "", "gear": "AIS gap", "flag": "SG", "flag_emoji": "\ud83c\uddf8\ud83c\uddec", "eez": "Indonesian Exclusive Economic Zone", "eez_sovereign": "Indonesia", "eez_foreign": true, "authorization": "no_record", "authorities": "", "iuu_listed": false, "iuu_label": "", "imo": "", "next_port": null, "evidence_hash": "e0aebabf1bd56d68c554b25b557ebc9c838c42c0e4ac5d84a9fbcea37d25f4e1", "evidence_schema": "seavigil-evidence-1.0", "why": "went dark 197 nm offshore for 13 h \u00b7 satellite-confirmed AIS gap (GFW Events)", "why_full": "went dark 197 nm offshore for 13 h \u00b7 satellite-confirmed AIS gap (GFW Events)", "baseline": "", "caveats": "AIS gaps can be reception loss, not always intentional disabling. | The position is where AIS dropped; the path while dark is unknown. | An inspection lead from GFW Events, not proof of illegal activity.", "caveat": "AIS gaps can be reception loss, not always intentional disabling.", "innocent": "Going dark is frequently benign: in open water, where gaps are commonly protecting a fishing ground or waiting out weather. It is most actionable inside or beside a closed zone."}}, {"type": "Feature", "geometry": {"type": "Point", "coordinates": [156.5296, -0.252]}, "properties": {"id": "live_ais__ead581f185dbdb", "kind": "ais_disabling", "mpa": "AIS disabling (going dark)", "severity": "high", "severity_reason": "foreign vessel, authorization lapsed", "when": "2026-09-21T17:54:22.000Z", "score": null, "vessel": "431128000", "ship_name": "SHOYUMARU NO18", "ship_type": "Fishing", "destination": "", "gear": "AIS gap", "flag": "JP", "flag_emoji": "\ud83c\uddef\ud83c\uddf5", "eez": "Micronesian Exclusive Economic Zone", "eez_sovereign": "Micronesia", "eez_foreign": true, "authorization": "authorization_lapsed", "authorities": "FFA, IOTC, WCPFC", "iuu_listed": false, "iuu_label": "", "imo": "9746657", "next_port": null, "evidence_hash": "508491084ee14b32f765472fc821419418f0236654685ebca6541916ed6d2b12", "evidence_schema": "seavigil-evidence-1.0", "why": "went dark 94 nm offshore for 319 h \u00b7 satellite-confirmed AIS gap (GFW Events)", "why_full": "went dark 94 nm offshore for 319 h \u00b7 satellite-confirmed AIS gap (GFW Events)", "baseline": "", "caveats": "AIS gaps can be reception loss, not always intentional disabling. | The position is where AIS dropped; the path while dark is unknown. | An inspection lead from GFW Events, not proof of illegal activity.", "caveat": "AIS gaps can be reception loss, not always intentional disabling.", "innocent": "Going dark is frequently benign: in open water, where gaps are commonly protecting a fishing ground or waiting out weather. It is most actionable inside or beside a closed zone."}}, {"type": "Feature", "geometry": {"type": "Point", "coordinates": [175.6059, -24.1039]}, "properties": {"id": "live_ais__6a0c9f5c2a829e", "kind": "ais_disabling", "mpa": "AIS disabling (going dark)", "severity": "high", "severity_reason": "foreign vessel, no authorization on record", "when": "2026-10-04T06:22:00.000Z", "score": null, "vessel": "413129547", "ship_name": "WANGBIAO-9547  100%", "ship_type": "Gear", "destination": "", "gear": "AIS gap", "flag": "CN", "flag_emoji": "\ud83c\udde8\ud83c\uddf3", "eez": "Fijian Exclusive Economic Zone", "eez_sovereign": "Fiji", "eez_foreign": true, "authorization": "no_record", "authorities": "", "iuu_listed": false, "iuu_label": "", "imo": "", "next_port": null, "evidence_hash": "105aa725f9a3bee3a0c6df6dda9c8b5c07d3c0cd740bb9121eaaffd6adfefd03", "evidence_schema": "seavigil-evidence-1.0", "why": "went dark 204 nm offshore for 18 h \u00b7 satellite-confirmed AIS gap (GFW Events)", "why_full": "went dark 204 nm offshore for 18 h \u00b7 satellite-confirmed AIS gap (GFW Events)", "baseline": "", "caveats": "AIS gaps can be reception loss, not always intentional disabling. | The position is where AIS dropped; the path while dark is unknown. | An inspection lead from GFW Events, not proof of illegal activity.", "caveat": "AIS gaps can be reception loss, not always intentional disabling.", "innocent": "Going dark is frequently benign: in open water, where gaps are commonly protecting a fishing ground or waiting out weather. It is most actionable inside or beside a closed zone."}}, {"type": "Feature", "geometry": {"type": "Point", "coordinates": [176.2671, -17.9338]}, "properties": {"id": "live_ais__2f1e1beaeeadb7", "kind": "ais_disabling", "mpa": "AIS disabling (going dark)", "severity": "high", "severity_reason": "foreign vessel, no authorization on record", "when": "2026-10-04T04:10:04.000Z", "score": null, "vessel": "412005011", "ship_name": "SEIN 11 N9-99%", "ship_type": "Gear", "destination": "", "gear": "AIS gap", "flag": "CN", "flag_emoji": "\ud83c\udde8\ud83c\uddf3", "eez": "Fijian Exclusive Economic Zone", "eez_sovereign": "Fiji", "eez_foreign": true, "authorization": "no_record", "authorities": "", "iuu_listed": false, "iuu_label": "", "imo": "", "next_port": null, "evidence_hash": "a26b54bcd8be19a596e0799d316f717e1ddc7f5001969fd34f7275e167bb967d", "evidence_schema": "seavigil-evidence-1.0", "why": "went dark 61 nm offshore for 18 h \u00b7 satellite-confirmed AIS gap (GFW Events)", "why_full": "went dark 61 nm offshore for 18 h \u00b7 satellite-confirmed AIS gap (GFW Events)", "baseline": "", "caveats": "AIS gaps can be reception loss, not always intentional disabling. | The position is where AIS dropped; the path while dark is unknown. | An inspection lead from GFW Events, not proof of illegal activity.", "caveat": "AIS gaps can be reception loss, not always intentional disabling.", "innocent": "Going dark is frequently benign: in open water, where gaps are commonly protecting a fishing ground or waiting out weather. It is most actionable inside or beside a closed zone."}}, {"type": "Feature", "geometry": {"type": "Point", "coordinates": [-19.3322, 20.1268]}, "properties": {"id": "live_ais__a66ccc621253d9", "kind": "ais_disabling", "mpa": "AIS disabling (going dark)", "severity": "high", "severity_reason": "foreign vessel, authorization lapsed", "when": "2026-10-04T05:36:26.000Z", "score": null, "vessel": "359101000", "ship_name": "MONTEFRISA NUEVE", "ship_type": "Fishing", "destination": "", "gear": "AIS gap", "flag": "SV", "flag_emoji": "\ud83c\uddf8\ud83c\uddfb", "eez": "Overlapping claim Western Sahara: Western Sahara / Morocco", "eez_sovereign": "Western Sahara", "eez_foreign": true, "authorization": "authorization_lapsed", "authorities": "ICCAT", "iuu_listed": false, "iuu_label": "", "imo": "7409176", "next_port": null, "evidence_hash": "8a119530aa7bfbe18f4f8065d9a97eb1fa5abab84a9165e283ce4e409a77b6d7", "evidence_schema": "seavigil-evidence-1.0", "why": "went dark 114 nm offshore for 16 h \u00b7 satellite-confirmed AIS gap (GFW Events)", "why_full": "went dark 114 nm offshore for 16 h \u00b7 satellite-confirmed AIS gap (GFW Events)", "baseline": "", "caveats": "AIS gaps can be reception loss, not always intentional disabling. | The position is where AIS dropped; the path while dark is unknown. | An inspection lead from GFW Events, not proof of illegal activity.", "caveat": "AIS gaps can be reception loss, not always intentional disabling.", "innocent": "Going dark is frequently benign: in open water, where gaps are commonly protecting a fishing ground or waiting out weather. It is most actionable inside or beside a closed zone."}}, {"type": "Feature", "geometry": {"type": "Point", "coordinates": [11.6366, -7.571]}, "properties": {"id": "live_ais__0c83d10dbb658e", "kind": "ais_disabling", "mpa": "AIS disabling (going dark)", "severity": "high", "severity_reason": "foreign vessel, no authorization on record", "when": "2026-10-04T07:38:15.000Z", "score": null, "vessel": "377669000", "ship_name": "MAMOLINO 2001", "ship_type": "Other", "destination": "", "gear": "AIS gap", "flag": "VC", "flag_emoji": "\ud83c\uddfb\ud83c\udde8", "eez": "Angolan Exclusive Economic Zone", "eez_sovereign": "Angola", "eez_foreign": true, "authorization": "no_record", "authorities": "", "iuu_listed": false, "iuu_label": "", "imo": "", "next_port": null, "evidence_hash": "69f9838c4bb97ae769a122759eb6f44f891c402143755ec6e379515fd7e614ba", "evidence_schema": "seavigil-evidence-1.0", "why": "went dark 73 nm offshore for 14 h \u00b7 satellite-confirmed AIS gap (GFW Events)", "why_full": "went dark 73 nm offshore for 14 h \u00b7 satellite-confirmed AIS gap (GFW Events)", "baseline": "", "caveats": "AIS gaps can be reception loss, not always intentional disabling. | The position is where AIS dropped; the path while dark is unknown. | An inspection lead from GFW Events, not proof of illegal activity.", "caveat": "AIS gaps can be reception loss, not always intentional disabling.", "innocent": "Going dark is frequently benign: in open water, where gaps are commonly protecting a fishing ground or waiting out weather. It is most actionable inside or beside a closed zone."}}, {"type": "Feature", "geometry": {"type": "Point", "coordinates": [11.5001, -13.674]}, "properties": {"id": "live_ais__2415bb3c8ec0d4", "kind": "ais_disabling", "mpa": "AIS disabling (going dark)", "severity": "high", "severity_reason": "foreign vessel, authorization lapsed", "when": "2026-10-02T10:17:19.000Z", "score": null, "vessel": "306142000", "ship_name": "HAIZEA BAT", "ship_type": "Fishing", "destination": "", "gear": "AIS gap", "flag": "CW", "flag_emoji": "\ud83c\udde8\ud83c\uddfc", "eez": "Angolan Exclusive Economic Zone", "eez_sovereign": "Angola", "eez_foreign": true, "authorization": "authorization_lapsed", "authorities": "ICCAT, IOTC", "iuu_listed": false, "iuu_label": "", "imo": "9717943", "next_port": null, "evidence_hash": "e5ebfb546cebd4983b1e1fc3527cfd2aa792aae7bc9a050f56309def92c7e3f4", "evidence_schema": "seavigil-evidence-1.0", "why": "went dark 73 nm offshore for 58 h \u00b7 satellite-confirmed AIS gap (GFW Events)", "why_full": "went dark 73 nm offshore for 58 h \u00b7 satellite-confirmed AIS gap (GFW Events)", "baseline": "", "caveats": "AIS gaps can be reception loss, not always intentional disabling. | The position is where AIS dropped; the path while dark is unknown. | An inspection lead from GFW Events, not proof of illegal activity.", "caveat": "AIS gaps can be reception loss, not always intentional disabling.", "innocent": "Going dark is frequently benign: in open water, where gaps are commonly protecting a fishing ground or waiting out weather. It is most actionable inside or beside a closed zone."}}]}