{"type": "FeatureCollection", "features": [{"type": "Feature", "geometry": {"type": "LineString", "coordinates": [[-77.123065, -12.168063333333333], [-76.98893666666666, -12.07501]]}, "properties": {"id": "live_spoof_319151100.0", "kind": "ais_spoofing"}}, {"type": "Feature", "geometry": {"type": "LineString", "coordinates": [[-77.03997166666666, -11.903128333333331], [-77.026625, -10.758775000000002]]}, "properties": {"id": "live_spoof_341698001.0", "kind": "ais_spoofing"}}, {"type": "Feature", "geometry": {"type": "LineString", "coordinates": [[-76.95260833333333, -12.037995], [-78.04292666666667, -12.705983333333334]]}, "properties": {"id": "live_spoof_636014337.0", "kind": "ais_spoofing"}}]}